*******************************************************************************
Ephemeris / WWW_USER Mon Mar 10 14:46:34 2025 Pasadena, USA      / Horizons    
*******************************************************************************
Target body name: (2018 RC)                       {source: JPL#21}
Center body name: Earth (399)                     {source: DE441}
Center-site name: Gemini South Obs., Cerro Pachon
*******************************************************************************
Start time      : A.D. 2018-Aug-25 22:32:00.0000 UT      
Stop  time      : A.D. 2018-Aug-26 10:57:00.0000 UT      
Step-size       : 1 minutes
*******************************************************************************
Target pole/equ : undefined
Target radii    : undefined                                                    
Center geodetic : 289.2634, -30.2406227, 2.71233  {E-lon(deg),Lat(deg),Alt(km)}
Center cylindric: 289.2634,5517.21435,-3194.81213 {E-lon(deg),Dxy(km),Dz(km)}
Center pole/equ : ITRF93                          {East-longitude positive}
Center radii    : 6378.137, 6378.137, 6356.752 km {Equator_a, b, pole_c}       
Target primary  : Sun
Vis. interferer : MOON (R_eq= 1737.400) km        {source: DE441}
Rel. light bend : Sun                             {source: DE441}
Rel. lght bnd GM: 1.3271E+11 km^3/s^2                                          
Small-body perts: Yes                             {source: SB441-N16}
Atmos refraction: NO (AIRLESS)
RA format       : HMS
Time format     : CAL 
Calendar mode   : Mixed Julian/Gregorian
RTS-only print  : NO       
EOP file        : eop.250307.p250603                                           
EOP coverage    : DATA-BASED 1962-JAN-20 TO 2025-MAR-07. PREDICTS-> 2025-JUN-02
Units conversion: 1 au= 149597870.700 km, c= 299792.458 km/s, 1 day= 86400.0 s 
Table cut-offs 1: Elevation (-90.0deg=NO ),Airmass (>38.000=NO), Daylight (YES)
Table cut-offs 2: Solar elongation (  0.0,180.0=NO ),Local Hour Angle( 0.0=NO )
Table cut-offs 3: RA/DEC angular rate (     0.0=NO )                           
*******************************************************************************
Initial IAU76/J2000 heliocentric ecliptic osculating elements (au, days, deg.):
  EPOCH=  2458369.5 ! 2018-Sep-08.00 (TDB)         Residual RMS= .84866        
   EC= .2426621660028976   QR= .647471518312811    TP= 2458473.8617576878      
   OM= 346.8893436915528   W=  145.8737085184167   IN= 1.612045057594462       
  Equivalent ICRF heliocentric cartesian coordinates (au, au/d):
   X= 9.781363708094483E-01  Y=-2.377942828764822E-01  Z=-1.040448782093900E-01
  VX= 1.501011538102481E-03 VY= 1.393070215815854E-02 VZ= 6.509326736836346E-03
Asteroid physical parameters (km, seconds, rotational period in hours):        
   GM= n.a.                RAD= n.a.               ROTPER= .16548              
   H= 24.93                G= .150                 B-V= n.a.                   
                           ALBEDO= n.a.            STYP= n.a.                  
*******************************************************************************
 Date__(UT)__HR:MN     R.A._________(ICRF)_________DEC
******************************************************
$$SOE
 2018-Aug-25 22:32 Cm  01 31 23.214945 +00 21 28.39747
 2018-Aug-25 22:33 Cm  01 31 23.253816 +00 21 28.29300
 2018-Aug-25 22:34 Cm  01 31 23.292547 +00 21 28.18853
 2018-Aug-25 22:35 Cm  01 31 23.331136 +00 21 28.08407
 2018-Aug-25 22:36 Cm  01 31 23.369582 +00 21 27.97960
 2018-Aug-25 22:37 Cm  01 31 23.407886 +00 21 27.87513
 2018-Aug-25 22:38 Cm  01 31 23.446046 +00 21 27.77066
 2018-Aug-25 22:39 Cm  01 31 23.484062 +00 21 27.66619
 2018-Aug-25 22:40 Cm  01 31 23.521932 +00 21 27.56172
 2018-Aug-25 22:41 Cm  01 31 23.559656 +00 21 27.45725
 2018-Aug-25 22:42 Cm  01 31 23.597233 +00 21 27.35278
 2018-Aug-25 22:43 Cm  01 31 23.634662 +00 21 27.24831
 2018-Aug-25 22:44 Cm  01 31 23.671943 +00 21 27.14384
 2018-Aug-25 22:45 Cm  01 31 23.709074 +00 21 27.03937
 2018-Aug-25 22:46 Cm  01 31 23.746056 +00 21 26.93489
 2018-Aug-25 22:47 Cm  01 31 23.782887 +00 21 26.83042
 2018-Aug-25 22:48 Cm  01 31 23.819566 +00 21 26.72594
 2018-Aug-25 22:49 Nm  01 31 23.856093 +00 21 26.62146
 2018-Aug-25 22:50 Nm  01 31 23.892466 +00 21 26.51698
 2018-Aug-25 22:51 Nm  01 31 23.928686 +00 21 26.41250
 2018-Aug-25 22:52 Nm  01 31 23.964752 +00 21 26.30802
 2018-Aug-25 22:53 Nm  01 31 24.000662 +00 21 26.20354
 2018-Aug-25 22:54 Nm  01 31 24.036416 +00 21 26.09905
 2018-Aug-25 22:55 Nm  01 31 24.072013 +00 21 25.99456
 2018-Aug-25 22:56 Nm  01 31 24.107453 +00 21 25.89007
 2018-Aug-25 22:57 Nm  01 31 24.142734 +00 21 25.78558
 2018-Aug-25 22:58 Nm  01 31 24.177857 +00 21 25.68109
 2018-Aug-25 22:59 Nm  01 31 24.212819 +00 21 25.57659
 2018-Aug-25 23:00 Nm  01 31 24.247621 +00 21 25.47209
 2018-Aug-25 23:01 Nm  01 31 24.282262 +00 21 25.36759
 2018-Aug-25 23:02 Nm  01 31 24.316741 +00 21 25.26309
 2018-Aug-25 23:03 Nm  01 31 24.351057 +00 21 25.15858
 2018-Aug-25 23:04 Nm  01 31 24.385210 +00 21 25.05407
 2018-Aug-25 23:05 Nm  01 31 24.419199 +00 21 24.94956
 2018-Aug-25 23:06 Nm  01 31 24.453023 +00 21 24.84504
 2018-Aug-25 23:07 Nm  01 31 24.486682 +00 21 24.74052
 2018-Aug-25 23:08 Nm  01 31 24.520174 +00 21 24.63600
 2018-Aug-25 23:09 Nm  01 31 24.553499 +00 21 24.53148
 2018-Aug-25 23:10 Nm  01 31 24.586657 +00 21 24.42695
 2018-Aug-25 23:11 Nm  01 31 24.619646 +00 21 24.32242
 2018-Aug-25 23:12 Nm  01 31 24.652467 +00 21 24.21788
 2018-Aug-25 23:13 Nm  01 31 24.685117 +00 21 24.11335
 2018-Aug-25 23:14 Nm  01 31 24.717598 +00 21 24.00880
 2018-Aug-25 23:15 Nm  01 31 24.749907 +00 21 23.90426
 2018-Aug-25 23:16 Nm  01 31 24.782045 +00 21 23.79971
 2018-Aug-25 23:17 Am  01 31 24.814010 +00 21 23.69515
 2018-Aug-25 23:18 Am  01 31 24.845802 +00 21 23.59060
 2018-Aug-25 23:19 Am  01 31 24.877420 +00 21 23.48603
 2018-Aug-25 23:20 Am  01 31 24.908864 +00 21 23.38147
 2018-Aug-25 23:21 Am  01 31 24.940132 +00 21 23.27690
 2018-Aug-25 23:22 Am  01 31 24.971225 +00 21 23.17232
 2018-Aug-25 23:23 Am  01 31 25.002141 +00 21 23.06774
 2018-Aug-25 23:24 Am  01 31 25.032881 +00 21 22.96315
 2018-Aug-25 23:25 Am  01 31 25.063442 +00 21 22.85856
 2018-Aug-25 23:26 Am  01 31 25.093826 +00 21 22.75397
 2018-Aug-25 23:27 Am  01 31 25.124030 +00 21 22.64937
 2018-Aug-25 23:28 Am  01 31 25.154054 +00 21 22.54476
 2018-Aug-25 23:29 Am  01 31 25.183899 +00 21 22.44015
 2018-Aug-25 23:30 Am  01 31 25.213562 +00 21 22.33554
 2018-Aug-25 23:31 Am  01 31 25.243043 +00 21 22.23092
 2018-Aug-25 23:32 Am  01 31 25.272343 +00 21 22.12629
 2018-Aug-25 23:33 Am  01 31 25.301460 +00 21 22.02166
 2018-Aug-25 23:34 Am  01 31 25.330393 +00 21 21.91702
 2018-Aug-25 23:35 Am  01 31 25.359142 +00 21 21.81238
 2018-Aug-25 23:36 Am  01 31 25.387706 +00 21 21.70773
 2018-Aug-25 23:37 Am  01 31 25.416085 +00 21 21.60307
 2018-Aug-25 23:38 Am  01 31 25.444279 +00 21 21.49841
 2018-Aug-25 23:39 Am  01 31 25.472285 +00 21 21.39374
 2018-Aug-25 23:40 Am  01 31 25.500105 +00 21 21.28906
 2018-Aug-25 23:41 Am  01 31 25.527737 +00 21 21.18438
 2018-Aug-25 23:42 Am  01 31 25.555180 +00 21 21.07970
 2018-Aug-25 23:43 Am  01 31 25.582435 +00 21 20.97500
 2018-Aug-25 23:44 Am  01 31 25.609500 +00 21 20.87030
 2018-Aug-25 23:45  m  01 31 25.636375 +00 21 20.76559
 2018-Aug-25 23:46  m  01 31 25.663059 +00 21 20.66087
 2018-Aug-25 23:47  m  01 31 25.689553 +00 21 20.55615
 2018-Aug-25 23:48  m  01 31 25.715854 +00 21 20.45142
 2018-Aug-25 23:49  m  01 31 25.741963 +00 21 20.34668
 2018-Aug-25 23:50  m  01 31 25.767879 +00 21 20.24194
 2018-Aug-25 23:51  m  01 31 25.793602 +00 21 20.13719
 2018-Aug-25 23:52  m  01 31 25.819130 +00 21 20.03243
 2018-Aug-25 23:53  m  01 31 25.844464 +00 21 19.92766
 2018-Aug-25 23:54  m  01 31 25.869603 +00 21 19.82288
 2018-Aug-25 23:55  m  01 31 25.894545 +00 21 19.71810
 2018-Aug-25 23:56  m  01 31 25.919292 +00 21 19.61330
 2018-Aug-25 23:57  m  01 31 25.943842 +00 21 19.50850
 2018-Aug-25 23:58  m  01 31 25.968195 +00 21 19.40370
 2018-Aug-25 23:59  m  01 31 25.992349 +00 21 19.29888
 2018-Aug-26 00:00  m  01 31 26.016305 +00 21 19.19405
 2018-Aug-26 00:01  m  01 31 26.040063 +00 21 19.08922
 2018-Aug-26 00:02  m  01 31 26.063620 +00 21 18.98437
 2018-Aug-26 00:03  m  01 31 26.086978 +00 21 18.87952
 2018-Aug-26 00:04  m  01 31 26.110136 +00 21 18.77466
 2018-Aug-26 00:05  m  01 31 26.133092 +00 21 18.66979
 2018-Aug-26 00:06  m  01 31 26.155847 +00 21 18.56491
 2018-Aug-26 00:07  m  01 31 26.178399 +00 21 18.46002
 2018-Aug-26 00:08  m  01 31 26.200750 +00 21 18.35512
 2018-Aug-26 00:09  m  01 31 26.222897 +00 21 18.25021
 2018-Aug-26 00:10  m  01 31 26.244841 +00 21 18.14530
 2018-Aug-26 00:11  m  01 31 26.266580 +00 21 18.04037
 2018-Aug-26 00:12  m  01 31 26.288116 +00 21 17.93543
 2018-Aug-26 00:13  m  01 31 26.309446 +00 21 17.83048
 2018-Aug-26 00:14  m  01 31 26.330571 +00 21 17.72552
 2018-Aug-26 00:15  m  01 31 26.351489 +00 21 17.62056
 2018-Aug-26 00:16  m  01 31 26.372202 +00 21 17.51558
 2018-Aug-26 00:17  m  01 31 26.392707 +00 21 17.41059
 2018-Aug-26 00:18  m  01 31 26.413006 +00 21 17.30559
 2018-Aug-26 00:19  m  01 31 26.433096 +00 21 17.20058
 2018-Aug-26 00:20  m  01 31 26.452978 +00 21 17.09556
 2018-Aug-26 00:21  m  01 31 26.472652 +00 21 16.99052
 2018-Aug-26 00:22  m  01 31 26.492116 +00 21 16.88548
 2018-Aug-26 00:23  m  01 31 26.511371 +00 21 16.78043
 2018-Aug-26 00:24  m  01 31 26.530416 +00 21 16.67536
 2018-Aug-26 00:25  m  01 31 26.549250 +00 21 16.57028
 2018-Aug-26 00:26  m  01 31 26.567874 +00 21 16.46519
 2018-Aug-26 00:27  m  01 31 26.586286 +00 21 16.36009
 2018-Aug-26 00:28  m  01 31 26.604486 +00 21 16.25498
 2018-Aug-26 00:29  m  01 31 26.622474 +00 21 16.14986
 2018-Aug-26 00:30  m  01 31 26.640250 +00 21 16.04472
 2018-Aug-26 00:31  m  01 31 26.657813 +00 21 15.93957
 2018-Aug-26 00:32  m  01 31 26.675162 +00 21 15.83441
 2018-Aug-26 00:33  m  01 31 26.692297 +00 21 15.72924
 2018-Aug-26 00:34  m  01 31 26.709219 +00 21 15.62405
